[Satellite]
VERSION=1.1
NAME=JAS-1 (FO-12)
NICKNAME=FO-12
TLE1=1 16909U 86061B   11060.01213486 -.00000083  00000-0  10000-3 0  8567
TLE2=2 16909  50.0161  50.2490 0010895 350.0767   9.9848 12.44454812116406
